[{"OBJECT_NAME":"AFR-1","OBJECT_ID":"2023-084AJ","EPOCH":"2026-03-09T23:02:07.499328","MEAN_MOTION":15.27543824,"ECCENTRICITY":0.00099838,"INCLINATION":97.6099,"RA_OF_ASC_NODE":203.4313,"ARG_OF_PERICENTER":334.9676,"MEAN_ANOMALY":25.1077,"EPHEMERIS_TYPE":0,"CLASSIFICATION_TYPE":"U","NORAD_CAT_ID":56964,"ELEMENT_SET_NO":999,"REV_AT_EPOCH":15207,"BSTAR":0.00024843733,"MEAN_MOTION_DOT":6.624e-5,"MEAN_MOTION_DDOT":0},{"OBJECT_NAME":"STARLINK-34681","OBJECT_ID":"2025-259S","EPOCH":"2026-03-09T21:44:54.042720","MEAN_MOTION":15.27602087,"ECCENTRICITY":0.00019215,"INCLINATION":43,"RA_OF_ASC_NODE":273.1825,"ARG_OF_PERICENTER":263.5308,"MEAN_ANOMALY":96.5325,"EPHEMERIS_TYPE":0,"CLASSIFICATION_TYPE":"U","NORAD_CAT_ID":66438,"ELEMENT_SET_NO":999,"REV_AT_EPOCH":1941,"BSTAR":0.0010530093,"MEAN_MOTION_DOT":0.00028848,"MEAN_MOTION_DDOT":0}]
